STARLINK-37213          
1 68686U 26077AA  26112.59609591 -.00562758  00000+0 -37036-2 0  9997
2 68686  97.2830 343.6782 0001803 154.3199 205.8157 15.77088465  1822
