{
  "norad_id": 68686,
  "name": "STARLINK-37213",
  "history": [
    {
      "epoch": "2026-04-22T14:18:22.686624Z",
      "apogee_km": 339.9060843921243,
      "perigee_km": 337.48345750897806,
      "latitude_deg": -2.478055509767592e-06,
      "longitude_deg": -81.57174068113399,
      "height_km": 342.9563880814961,
      "semi_major_axis_km": 6716.831770950551,
      "eccentricity": 0.00018034,
      "inclination_deg": 97.283,
      "raan_deg": 343.6782,
      "arg_perigee_deg": 154.3199,
      "mean_anomaly_deg": 205.8157,
      "mean_motion_rev_day": 15.77088465
    }
  ]
}